{
  "type": "FeatureCollection",
  "features": [
    {
      "type": "Feature",
      "properties": {
        "name": "San Diego",
        "display_name": "San Diego, California, USA",
        "type": "city",
        "generated": "fallback_circular_approximation",
        "center_lat": 32.7157,
        "center_lon": -117.1611,
        "approx_radius_km": 15
      },
      "geometry": {
        "type": "Polygon",
        "coordinates": [
          [
            [
              -117.0004854010317,
              32.7157
            ],
            [
              -117.00357156551402,
              32.742063557029205
            ],
            [
              -117.01271145939067,
              32.767413977346635
            ],
            [
              -117.02755384166569,
              32.79077705851616
            ],
            [
              -117.04752832791195,
              32.81125497043061
            ],
            [
              -117.07186730982482,
              32.82806075841926
            ],
            [
              -117.09963545397886,
              32.840548585474494
            ],
            [
              -117.12976564616679,
              32.84823855140584
            ],
            [
              -117.1611,
              32.850835135135135
            ],
            [
              -117.19243435383322,
              32.84823855140584
            ],
            [
              -117.22256454602115,
              32.840548585474494
            ],
            [
              -117.25033269017518,
              32.82806075841926
            ],
            [
              -117.27467167208806,
              32.81125497043061
            ],
            [
              -117.29464615833432,
              32.79077705851616
            ],
            [
              -117.30948854060934,
              32.767413977346635
            ],
            [
              -117.31862843448599,
              32.742063557029205
            ],
            [
              -117.32171459896831,
              32.7157
            ],
            [
              -117.31862843448599,
              32.68933644297079
            ],
            [
              -117.30948854060934,
              32.66398602265336
            ],
            [
              -117.29464615833432,
              32.640622941483834
            ],
            [
              -117.27467167208806,
              32.620145029569386
            ],
            [
              -117.25033269017518,
              32.603339241580734
            ],
            [
              -117.22256454602115,
              32.5908514145255
            ],
            [
              -117.19243435383322,
              32.583161448594154
            ],
            [
              -117.1611,
              32.58056486486486
            ],
            [
              -117.12976564616679,
              32.583161448594154
            ],
            [
              -117.09963545397886,
              32.5908514145255
            ],
            [
              -117.07186730982482,
              32.603339241580734
            ],
            [
              -117.04752832791195,
              32.620145029569386
            ],
            [
              -117.02755384166569,
              32.640622941483834
            ],
            [
              -117.01271145939067,
              32.66398602265336
            ],
            [
              -117.00357156551402,
              32.68933644297079
            ],
            [
              -117.0004854010317,
              32.7157
            ]
          ]
        ]
      }
    },
    {
      "type": "Feature",
      "properties": {
        "name": "El Centro",
        "display_name": "El Centro, California, USA",
        "type": "city",
        "generated": "fallback_circular_approximation",
        "center_lat": 32.792,
        "center_lon": -115.563,
        "approx_radius_km": 4
      },
      "geometry": {
        "type": "Polygon",
        "coordinates": [
          [
            [
              -115.52013273178207,
              32.792
            ],
            [
              -115.52095641432075,
              32.79903028187446
            ],
            [
              -115.52339580827878,
              32.80579039395911
            ],
            [
              -115.52735716911437,
              32.812020548937646
            ],
            [
              -115.53268826395215,
              32.81748132544816
            ],
            [
              -115.53918422180725,
              32.821962868911804
            ],
            [
              -115.54659540666225,
              32.82529295612653
            ],
            [
              -115.55463701083941,
              32.82734361370822
            ],
            [
              -115.563,
              32.82803603603604
            ],
            [
              -115.57136298916059,
              32.82734361370822
            ],
            [
              -115.57940459333776,
              32.82529295612653
            ],
            [
              -115.58681577819276,
              32.821962868911804
            ],
            [
              -115.59331173604785,
              32.81748132544816
            ],
            [
              -115.59864283088564,
              32.812020548937646
            ],
            [
              -115.60260419172123,
              32.80579039395911
            ],
            [
              -115.60504358567925,
              32.79903028187446
            ],
            [
              -115.60586726821793,
              32.792
            ],
            [
              -115.60504358567925,
              32.784969718125545
            ],
            [
              -115.60260419172123,
              32.778209606040896
            ],
            [
              -115.59864283088564,
              32.77197945106236
            ],
            [
              -115.59331173604785,
              32.76651867455184
            ],
            [
              -115.58681577819276,
              32.7620371310882
            ],
            [
              -115.57940459333776,
              32.75870704387347
            ],
            [
              -115.57136298916059,
              32.75665638629178
            ],
            [
              -115.563,
              32.755963963963964
            ],
            [
              -115.55463701083941,
              32.75665638629178
            ],
            [
              -115.54659540666225,
              32.75870704387347
            ],
            [
              -115.53918422180725,
              32.7620371310882
            ],
            [
              -115.53268826395215,
              32.76651867455184
            ],
            [
              -115.52735716911437,
              32.77197945106236
            ],
            [
              -115.52339580827878,
              32.778209606040896
            ],
            [
              -115.52095641432075,
              32.784969718125545
            ],
            [
              -115.52013273178207,
              32.792
            ]
          ]
        ]
      }
    },
    {
      "type": "Feature",
      "properties": {
        "name": "Calexico",
        "display_name": "Calexico, California, USA",
        "type": "city",
        "generated": "fallback_circular_approximation",
        "center_lat": 32.6789,
        "center_lon": -115.4989,
        "approx_radius_km": 3
      },
      "geometry": {
        "type": "Polygon",
        "coordinates": [
          [
            [
              -115.46679032157834,
              32.6789
            ],
            [
              -115.46740730004555,
              32.68417271140584
            ],
            [
              -115.46923452531071,
              32.689242795469326
            ],
            [
              -115.47220177813158,
              32.69391541170323
            ],
            [
              -115.47619502864633,
              32.69801099408612
            ],
            [
              -115.48106081847709,
              32.70137215168385
            ],
            [
              -115.48661215804947,
              32.703869717094896
            ],
            [
              -115.49263571249689,
              32.705407710281165
            ],
            [
              -115.4989,
              32.70592702702702
            ],
            [
              -115.50516428750312,
              32.705407710281165
            ],
            [
              -115.51118784195054,
              32.703869717094896
            ],
            [
              -115.51673918152292,
              32.70137215168385
            ],
            [
              -115.52160497135368,
              32.69801099408612
            ],
            [
              -115.52559822186844,
              32.69391541170323
            ],
            [
              -115.5285654746893,
              32.689242795469326
            ],
            [
              -115.53039269995446,
              32.68417271140584
            ],
            [
              -115.53100967842167,
              32.6789
            ],
            [
              -115.53039269995446,
              32.673627288594155
            ],
            [
              -115.5285654746893,
              32.66855720453067
            ],
            [
              -115.52559822186844,
              32.66388458829677
            ],
            [
              -115.52160497135368,
              32.65978900591388
            ],
            [
              -115.51673918152292,
              32.65642784831615
            ],
            [
              -115.51118784195054,
              32.6539302829051
            ],
            [
              -115.50516428750312,
              32.65239228971883
            ],
            [
              -115.4989,
              32.651872972972974
            ],
            [
              -115.49263571249689,
              32.65239228971883
            ],
            [
              -115.48661215804947,
              32.6539302829051
            ],
            [
              -115.48106081847709,
              32.65642784831615
            ],
            [
              -115.47619502864633,
              32.65978900591388
            ],
            [
              -115.47220177813158,
              32.66388458829677
            ],
            [
              -115.46923452531071,
              32.66855720453067
            ],
            [
              -115.46740730004555,
              32.673627288594155
            ],
            [
              -115.46679032157834,
              32.6789
            ]
          ]
        ]
      }
    },
    {
      "type": "Feature",
      "properties": {
        "name": "Brawley",
        "display_name": "Brawley, California, USA",
        "type": "city",
        "generated": "fallback_circular_approximation",
        "center_lat": 32.9786,
        "center_lon": -115.5303,
        "approx_radius_km": 3
      },
      "geometry": {
        "type": "Polygon",
        "coordinates": [
          [
            [
              -115.4980817774709,
              32.9786
            ],
            [
              -115.4987008415827,
              32.983872711405844
            ],
            [
              -115.50053424363148,
              32.98894279546933
            ],
            [
              -115.50351152700466,
              32.99361541170323
            ],
            [
              -115.5075182763719,
              32.99771099408612
            ],
            [
              -115.51240051460204,
              33.00107215168385
            ],
            [
              -115.51797062001786,
              33.0035697170949
            ],
            [
              -115.524014536592,
              33.005107710281166
            ],
            [
              -115.5303,
              33.005627027027025
            ],
            [
              -115.53658546340799,
              33.005107710281166
            ],
            [
              -115.54262937998213,
              33.0035697170949
            ],
            [
              -115.54819948539796,
              33.00107215168385
            ],
            [
              -115.5530817236281,
              32.99771099408612
            ],
            [
              -115.55708847299533,
              32.99361541170323
            ],
            [
              -115.56006575636852,
              32.98894279546933
            ],
            [
              -115.56189915841729,
              32.983872711405844
            ],
            [
              -115.56251822252909,
              32.9786
            ],
            [
              -115.56189915841729,
              32.973327288594156
            ],
            [
              -115.56006575636852,
              32.96825720453067
            ],
            [
              -115.55708847299533,
              32.96358458829677
            ],
            [
              -115.5530817236281,
              32.95948900591388
            ],
            [
              -115.54819948539796,
              32.95612784831615
            ],
            [
              -115.54262937998213,
              32.9536302829051
            ],
            [
              -115.53658546340799,
              32.952092289718834
            ],
            [
              -115.5303,
              32.951572972972976
            ],
            [
              -115.524014536592,
              32.952092289718834
            ],
            [
              -115.51797062001786,
              32.9536302829051
            ],
            [
              -115.51240051460204,
              32.95612784831615
            ],
            [
              -115.5075182763719,
              32.95948900591388
            ],
            [
              -115.50351152700466,
              32.96358458829677
            ],
            [
              -115.50053424363148,
              32.96825720453067
            ],
            [
              -115.4987008415827,
              32.973327288594156
            ],
            [
              -115.4980817774709,
              32.9786
            ]
          ]
        ]
      }
    },
    {
      "type": "Feature",
      "properties": {
        "name": "Imperial",
        "display_name": "Imperial, California, USA",
        "type": "city",
        "generated": "fallback_circular_approximation",
        "center_lat": 32.8473,
        "center_lon": -115.5694,
        "approx_radius_km": 2
      },
      "geometry": {
        "type": "Polygon",
        "coordinates": [
          [
            [
              -115.54795301980636,
              32.8473
            ],
            [
              -115.54836511751698,
              32.85081514093722
            ],
            [
              -115.54958557396492,
              32.854195196979546
            ],
            [
              -115.55156748769333,
              32.857310274468816
            ],
            [
              -115.55423469486911,
              32.86004066272408
            ],
            [
              -115.55748469621625,
              32.8622814344559
            ],
            [
              -115.56119259600564,
              32.86394647806326
            ],
            [
              -115.56521590172775,
              32.86497180685411
            ],
            [
              -115.5694,
              32.865318018018016
            ],
            [
              -115.57358409827225,
              32.86497180685411
            ],
            [
              -115.57760740399436,
              32.86394647806326
            ],
            [
              -115.58131530378375,
              32.8622814344559
            ],
            [
              -115.5845653051309,
              32.86004066272408
            ],
            [
              -115.58723251230667,
              32.857310274468816
            ],
            [
              -115.58921442603508,
              32.854195196979546
            ],
            [
              -115.59043488248302,
              32.85081514093722
            ],
            [
              -115.59084698019365,
              32.8473
            ],
            [
              -115.59043488248302,
              32.84378485906277
            ],
            [
              -115.58921442603508,
              32.84040480302045
            ],
            [
              -115.58723251230667,
              32.83728972553118
            ],
            [
              -115.5845653051309,
              32.83455933727591
            ],
            [
              -115.58131530378375,
              32.83231856554409
            ],
            [
              -115.57760740399436,
              32.83065352193673
            ],
            [
              -115.57358409827225,
              32.829628193145886
            ],
            [
              -115.5694,
              32.82928198198198
            ],
            [
              -115.56521590172775,
              32.829628193145886
            ],
            [
              -115.56119259600564,
              32.83065352193673
            ],
            [
              -115.55748469621625,
              32.83231856554409
            ],
            [
              -115.55423469486911,
              32.83455933727591
            ],
            [
              -115.55156748769333,
              32.83728972553118
            ],
            [
              -115.54958557396492,
              32.84040480302045
            ],
            [
              -115.54836511751698,
              32.84378485906277
            ],
            [
              -115.54795301980636,
              32.8473
            ]
          ]
        ]
      }
    },
    {
      "type": "Feature",
      "properties": {
        "name": "Holtville",
        "display_name": "Holtville, California, USA",
        "type": "city",
        "generated": "fallback_circular_approximation",
        "center_lat": 32.8117,
        "center_lon": -115.3803,
        "approx_radius_km": 2
      },
      "geometry": {
        "type": "Polygon",
        "coordinates": [
          [
            [
              -115.3588616156941,
              32.8117
            ],
            [
              -115.35927354823714,
              32.81521514093723
            ],
            [
              -115.36049351552967,
              32.81859519697955
            ],
            [
              -115.36247463491279,
              32.82171027446882
            ],
            [
              -115.36514077307962,
              32.824440662724086
            ],
            [
              -115.36838947183561,
              32.82668143445591
            ],
            [
              -115.37209588550947,
              32.82834647806327
            ],
            [
              -115.37611757870226,
              32.82937180685411
            ],
            [
              -115.3803,
              32.82971801801802
            ],
            [
              -115.38448242129775,
              32.82937180685411
            ],
            [
              -115.38850411449054,
              32.82834647806327
            ],
            [
              -115.3922105281644,
              32.82668143445591
            ],
            [
              -115.3954592269204,
              32.824440662724086
            ],
            [
              -115.39812536508722,
              32.82171027446882
            ],
            [
              -115.40010648447034,
              32.81859519697955
            ],
            [
              -115.40132645176287,
              32.81521514093723
            ],
            [
              -115.40173838430592,
              32.8117
            ],
            [
              -115.40132645176287,
              32.80818485906278
            ],
            [
              -115.40010648447034,
              32.80480480302045
            ],
            [
              -115.39812536508722,
              32.80168972553118
            ],
            [
              -115.3954592269204,
              32.79895933727592
            ],
            [
              -115.3922105281644,
              32.7967185655441
            ],
            [
              -115.38850411449054,
              32.79505352193674
            ],
            [
              -115.38448242129775,
              32.79402819314589
            ],
            [
              -115.3803,
              32.79368198198198
            ],
            [
              -115.37611757870226,
              32.79402819314589
            ],
            [
              -115.37209588550947,
              32.79505352193674
            ],
            [
              -115.36838947183561,
              32.7967185655441
            ],
            [
              -115.36514077307962,
              32.79895933727592
            ],
            [
              -115.36247463491279,
              32.80168972553118
            ],
            [
              -115.36049351552967,
              32.80480480302045
            ],
            [
              -115.35927354823714,
              32.80818485906278
            ],
            [
              -115.3588616156941,
              32.8117
            ]
          ]
        ]
      }
    }
  ],
  "metadata": {
    "generated_by": "generate_city_boundaries_fallback.py",
    "description": "Approximate city boundaries for TrashAlert pilot cities",
    "note": "These are circular approximations and not official boundaries",
    "total_cities": 6
  }
}