{
  "type": "FeatureCollection",
  "features": [
    {
      "type": "Feature",
      "properties": {
        "subdivision_id": "SD_DOWNTOWN",
        "city_id": "SAN_DIEGO",
        "city_name": "San Diego",
        "name": "Downtown",
        "type": "neighborhood"
      },
      "geometry": {
        "type": "Polygon",
        "coordinates": [
          [
            [
              -117.17110000000001,
              32.7057
            ],
            [
              -117.1511,
              32.7057
            ],
            [
              -117.1511,
              32.725699999999996
            ],
            [
              -117.17110000000001,
              32.725699999999996
            ],
            [
              -117.17110000000001,
              32.7057
            ]
          ]
        ]
      }
    },
    {
      "type": "Feature",
      "properties": {
        "subdivision_id": "SD_LA_JOLLA",
        "city_id": "SAN_DIEGO",
        "city_name": "San Diego",
        "name": "La Jolla",
        "type": "neighborhood"
      },
      "geometry": {
        "type": "Polygon",
        "coordinates": [
          [
            [
              -117.2863,
              32.8178
            ],
            [
              -117.2563,
              32.8178
            ],
            [
              -117.2563,
              32.8478
            ],
            [
              -117.2863,
              32.8478
            ],
            [
              -117.2863,
              32.8178
            ]
          ]
        ]
      }
    },
    {
      "type": "Feature",
      "properties": {
        "subdivision_id": "SD_PACIFIC_BEACH",
        "city_id": "SAN_DIEGO",
        "city_name": "San Diego",
        "name": "Pacific Beach",
        "type": "neighborhood"
      },
      "geometry": {
        "type": "Polygon",
        "coordinates": [
          [
            [
              -117.25160000000001,
              32.7842
            ],
            [
              -117.2316,
              32.7842
            ],
            [
              -117.2316,
              32.804199999999994
            ],
            [
              -117.25160000000001,
              32.804199999999994
            ],
            [
              -117.25160000000001,
              32.7842
            ]
          ]
        ]
      }
    },
    {
      "type": "Feature",
      "properties": {
        "subdivision_id": "SD_NORTH_PARK",
        "city_id": "SAN_DIEGO",
        "city_name": "San Diego",
        "name": "North Park",
        "type": "neighborhood"
      },
      "geometry": {
        "type": "Polygon",
        "coordinates": [
          [
            [
              -117.1419,
              32.7317
            ],
            [
              -117.1169,
              32.7317
            ],
            [
              -117.1169,
              32.7567
            ],
            [
              -117.1419,
              32.7567
            ],
            [
              -117.1419,
              32.7317
            ]
          ]
        ]
      }
    },
    {
      "type": "Feature",
      "properties": {
        "subdivision_id": "SD_HILLCREST",
        "city_id": "SAN_DIEGO",
        "city_name": "San Diego",
        "name": "Hillcrest",
        "type": "neighborhood"
      },
      "geometry": {
        "type": "Polygon",
        "coordinates": [
          [
            [
              -117.1736,
              32.7414
            ],
            [
              -117.1586,
              32.7414
            ],
            [
              -117.1586,
              32.7564
            ],
            [
              -117.1736,
              32.7564
            ],
            [
              -117.1736,
              32.7414
            ]
          ]
        ]
      }
    },
    {
      "type": "Feature",
      "properties": {
        "subdivision_id": "SD_MISSION_VALLEY",
        "city_id": "SAN_DIEGO",
        "city_name": "San Diego",
        "name": "Mission Valley",
        "type": "neighborhood"
      },
      "geometry": {
        "type": "Polygon",
        "coordinates": [
          [
            [
              -117.1812,
              32.759
            ],
            [
              -117.1512,
              32.759
            ],
            [
              -117.1512,
              32.789
            ],
            [
              -117.1812,
              32.789
            ],
            [
              -117.1812,
              32.759
            ]
          ]
        ]
      }
    },
    {
      "type": "Feature",
      "properties": {
        "subdivision_id": "SD_POINT_LOMA",
        "city_id": "SAN_DIEGO",
        "city_name": "San Diego",
        "name": "Point Loma",
        "type": "neighborhood"
      },
      "geometry": {
        "type": "Polygon",
        "coordinates": [
          [
            [
              -117.2588,
              32.6939
            ],
            [
              -117.22879999999999,
              32.6939
            ],
            [
              -117.22879999999999,
              32.7239
            ],
            [
              -117.2588,
              32.7239
            ],
            [
              -117.2588,
              32.6939
            ]
          ]
        ]
      }
    },
    {
      "type": "Feature",
      "properties": {
        "subdivision_id": "SD_CHULA_VISTA",
        "city_id": "SAN_DIEGO",
        "city_name": "San Diego",
        "name": "Chula Vista",
        "type": "neighborhood"
      },
      "geometry": {
        "type": "Polygon",
        "coordinates": [
          [
            [
              -117.10419999999999,
              32.620099999999994
            ],
            [
              -117.0642,
              32.620099999999994
            ],
            [
              -117.0642,
              32.6601
            ],
            [
              -117.10419999999999,
              32.6601
            ],
            [
              -117.10419999999999,
              32.620099999999994
            ]
          ]
        ]
      }
    },
    {
      "type": "Feature",
      "properties": {
        "subdivision_id": "SD_CLAIREMONT",
        "city_id": "SAN_DIEGO",
        "city_name": "San Diego",
        "name": "Clairemont",
        "type": "neighborhood"
      },
      "geometry": {
        "type": "Polygon",
        "coordinates": [
          [
            [
              -117.2158,
              32.805
            ],
            [
              -117.1908,
              32.805
            ],
            [
              -117.1908,
              32.830000000000005
            ],
            [
              -117.2158,
              32.830000000000005
            ],
            [
              -117.2158,
              32.805
            ]
          ]
        ]
      }
    },
    {
      "type": "Feature",
      "properties": {
        "subdivision_id": "EL_CENTRO_G1",
        "city_id": "EL_CENTRO",
        "city_name": "El Centro",
        "name": "Grid 1-1",
        "grid_row": 0,
        "grid_col": 0,
        "grid_size": 3
      },
      "geometry": {
        "type": "Polygon",
        "coordinates": [
          [
            [
              -115.58810000000001,
              32.767
            ],
            [
              -115.57143333333335,
              32.767
            ],
            [
              -115.57143333333335,
              32.78366666666667
            ],
            [
              -115.58810000000001,
              32.78366666666667
            ],
            [
              -115.58810000000001,
              32.767
            ]
          ]
        ]
      }
    },
    {
      "type": "Feature",
      "properties": {
        "subdivision_id": "EL_CENTRO_G2",
        "city_id": "EL_CENTRO",
        "city_name": "El Centro",
        "name": "Grid 1-2",
        "grid_row": 0,
        "grid_col": 1,
        "grid_size": 3
      },
      "geometry": {
        "type": "Polygon",
        "coordinates": [
          [
            [
              -115.57143333333335,
              32.767
            ],
            [
              -115.55476666666668,
              32.767
            ],
            [
              -115.55476666666668,
              32.78366666666667
            ],
            [
              -115.57143333333335,
              32.78366666666667
            ],
            [
              -115.57143333333335,
              32.767
            ]
          ]
        ]
      }
    },
    {
      "type": "Feature",
      "properties": {
        "subdivision_id": "EL_CENTRO_G3",
        "city_id": "EL_CENTRO",
        "city_name": "El Centro",
        "name": "Grid 1-3",
        "grid_row": 0,
        "grid_col": 2,
        "grid_size": 3
      },
      "geometry": {
        "type": "Polygon",
        "coordinates": [
          [
            [
              -115.55476666666667,
              32.767
            ],
            [
              -115.5381,
              32.767
            ],
            [
              -115.5381,
              32.78366666666667
            ],
            [
              -115.55476666666667,
              32.78366666666667
            ],
            [
              -115.55476666666667,
              32.767
            ]
          ]
        ]
      }
    },
    {
      "type": "Feature",
      "properties": {
        "subdivision_id": "EL_CENTRO_G4",
        "city_id": "EL_CENTRO",
        "city_name": "El Centro",
        "name": "Grid 2-1",
        "grid_row": 1,
        "grid_col": 0,
        "grid_size": 3
      },
      "geometry": {
        "type": "Polygon",
        "coordinates": [
          [
            [
              -115.58810000000001,
              32.78366666666667
            ],
            [
              -115.57143333333335,
              32.78366666666667
            ],
            [
              -115.57143333333335,
              32.800333333333334
            ],
            [
              -115.58810000000001,
              32.800333333333334
            ],
            [
              -115.58810000000001,
              32.78366666666667
            ]
          ]
        ]
      }
    },
    {
      "type": "Feature",
      "properties": {
        "subdivision_id": "EL_CENTRO_G5",
        "city_id": "EL_CENTRO",
        "city_name": "El Centro",
        "name": "Grid 2-2",
        "grid_row": 1,
        "grid_col": 1,
        "grid_size": 3
      },
      "geometry": {
        "type": "Polygon",
        "coordinates": [
          [
            [
              -115.57143333333335,
              32.78366666666667
            ],
            [
              -115.55476666666668,
              32.78366666666667
            ],
            [
              -115.55476666666668,
              32.800333333333334
            ],
            [
              -115.57143333333335,
              32.800333333333334
            ],
            [
              -115.57143333333335,
              32.78366666666667
            ]
          ]
        ]
      }
    },
    {
      "type": "Feature",
      "properties": {
        "subdivision_id": "EL_CENTRO_G6",
        "city_id": "EL_CENTRO",
        "city_name": "El Centro",
        "name": "Grid 2-3",
        "grid_row": 1,
        "grid_col": 2,
        "grid_size": 3
      },
      "geometry": {
        "type": "Polygon",
        "coordinates": [
          [
            [
              -115.55476666666667,
              32.78366666666667
            ],
            [
              -115.5381,
              32.78366666666667
            ],
            [
              -115.5381,
              32.800333333333334
            ],
            [
              -115.55476666666667,
              32.800333333333334
            ],
            [
              -115.55476666666667,
              32.78366666666667
            ]
          ]
        ]
      }
    },
    {
      "type": "Feature",
      "properties": {
        "subdivision_id": "EL_CENTRO_G7",
        "city_id": "EL_CENTRO",
        "city_name": "El Centro",
        "name": "Grid 3-1",
        "grid_row": 2,
        "grid_col": 0,
        "grid_size": 3
      },
      "geometry": {
        "type": "Polygon",
        "coordinates": [
          [
            [
              -115.58810000000001,
              32.800333333333334
            ],
            [
              -115.57143333333335,
              32.800333333333334
            ],
            [
              -115.57143333333335,
              32.817
            ],
            [
              -115.58810000000001,
              32.817
            ],
            [
              -115.58810000000001,
              32.800333333333334
            ]
          ]
        ]
      }
    },
    {
      "type": "Feature",
      "properties": {
        "subdivision_id": "EL_CENTRO_G8",
        "city_id": "EL_CENTRO",
        "city_name": "El Centro",
        "name": "Grid 3-2",
        "grid_row": 2,
        "grid_col": 1,
        "grid_size": 3
      },
      "geometry": {
        "type": "Polygon",
        "coordinates": [
          [
            [
              -115.57143333333335,
              32.800333333333334
            ],
            [
              -115.55476666666668,
              32.800333333333334
            ],
            [
              -115.55476666666668,
              32.817
            ],
            [
              -115.57143333333335,
              32.817
            ],
            [
              -115.57143333333335,
              32.800333333333334
            ]
          ]
        ]
      }
    },
    {
      "type": "Feature",
      "properties": {
        "subdivision_id": "EL_CENTRO_G9",
        "city_id": "EL_CENTRO",
        "city_name": "El Centro",
        "name": "Grid 3-3",
        "grid_row": 2,
        "grid_col": 2,
        "grid_size": 3
      },
      "geometry": {
        "type": "Polygon",
        "coordinates": [
          [
            [
              -115.55476666666667,
              32.800333333333334
            ],
            [
              -115.5381,
              32.800333333333334
            ],
            [
              -115.5381,
              32.817
            ],
            [
              -115.55476666666667,
              32.817
            ],
            [
              -115.55476666666667,
              32.800333333333334
            ]
          ]
        ]
      }
    },
    {
      "type": "Feature",
      "properties": {
        "subdivision_id": "CALEXICO_G1",
        "city_id": "CALEXICO",
        "city_name": "Calexico",
        "name": "Grid 1-1",
        "grid_row": 0,
        "grid_col": 0,
        "grid_size": 3
      },
      "geometry": {
        "type": "Polygon",
        "coordinates": [
          [
            [
              -115.5189,
              32.658899999999996
            ],
            [
              -115.50556666666667,
              32.658899999999996
            ],
            [
              -115.50556666666667,
              32.67223333333333
            ],
            [
              -115.5189,
              32.67223333333333
            ],
            [
              -115.5189,
              32.658899999999996
            ]
          ]
        ]
      }
    },
    {
      "type": "Feature",
      "properties": {
        "subdivision_id": "CALEXICO_G2",
        "city_id": "CALEXICO",
        "city_name": "Calexico",
        "name": "Grid 1-2",
        "grid_row": 0,
        "grid_col": 1,
        "grid_size": 3
      },
      "geometry": {
        "type": "Polygon",
        "coordinates": [
          [
            [
              -115.50556666666667,
              32.658899999999996
            ],
            [
              -115.49223333333333,
              32.658899999999996
            ],
            [
              -115.49223333333333,
              32.67223333333333
            ],
            [
              -115.50556666666667,
              32.67223333333333
            ],
            [
              -115.50556666666667,
              32.658899999999996
            ]
          ]
        ]
      }
    },
    {
      "type": "Feature",
      "properties": {
        "subdivision_id": "CALEXICO_G3",
        "city_id": "CALEXICO",
        "city_name": "Calexico",
        "name": "Grid 1-3",
        "grid_row": 0,
        "grid_col": 2,
        "grid_size": 3
      },
      "geometry": {
        "type": "Polygon",
        "coordinates": [
          [
            [
              -115.49223333333335,
              32.658899999999996
            ],
            [
              -115.47890000000001,
              32.658899999999996
            ],
            [
              -115.47890000000001,
              32.67223333333333
            ],
            [
              -115.49223333333335,
              32.67223333333333
            ],
            [
              -115.49223333333335,
              32.658899999999996
            ]
          ]
        ]
      }
    },
    {
      "type": "Feature",
      "properties": {
        "subdivision_id": "CALEXICO_G4",
        "city_id": "CALEXICO",
        "city_name": "Calexico",
        "name": "Grid 2-1",
        "grid_row": 1,
        "grid_col": 0,
        "grid_size": 3
      },
      "geometry": {
        "type": "Polygon",
        "coordinates": [
          [
            [
              -115.5189,
              32.67223333333333
            ],
            [
              -115.50556666666667,
              32.67223333333333
            ],
            [
              -115.50556666666667,
              32.685566666666666
            ],
            [
              -115.5189,
              32.685566666666666
            ],
            [
              -115.5189,
              32.67223333333333
            ]
          ]
        ]
      }
    },
    {
      "type": "Feature",
      "properties": {
        "subdivision_id": "CALEXICO_G5",
        "city_id": "CALEXICO",
        "city_name": "Calexico",
        "name": "Grid 2-2",
        "grid_row": 1,
        "grid_col": 1,
        "grid_size": 3
      },
      "geometry": {
        "type": "Polygon",
        "coordinates": [
          [
            [
              -115.50556666666667,
              32.67223333333333
            ],
            [
              -115.49223333333333,
              32.67223333333333
            ],
            [
              -115.49223333333333,
              32.685566666666666
            ],
            [
              -115.50556666666667,
              32.685566666666666
            ],
            [
              -115.50556666666667,
              32.67223333333333
            ]
          ]
        ]
      }
    },
    {
      "type": "Feature",
      "properties": {
        "subdivision_id": "CALEXICO_G6",
        "city_id": "CALEXICO",
        "city_name": "Calexico",
        "name": "Grid 2-3",
        "grid_row": 1,
        "grid_col": 2,
        "grid_size": 3
      },
      "geometry": {
        "type": "Polygon",
        "coordinates": [
          [
            [
              -115.49223333333335,
              32.67223333333333
            ],
            [
              -115.47890000000001,
              32.67223333333333
            ],
            [
              -115.47890000000001,
              32.685566666666666
            ],
            [
              -115.49223333333335,
              32.685566666666666
            ],
            [
              -115.49223333333335,
              32.67223333333333
            ]
          ]
        ]
      }
    },
    {
      "type": "Feature",
      "properties": {
        "subdivision_id": "CALEXICO_G7",
        "city_id": "CALEXICO",
        "city_name": "Calexico",
        "name": "Grid 3-1",
        "grid_row": 2,
        "grid_col": 0,
        "grid_size": 3
      },
      "geometry": {
        "type": "Polygon",
        "coordinates": [
          [
            [
              -115.5189,
              32.685566666666666
            ],
            [
              -115.50556666666667,
              32.685566666666666
            ],
            [
              -115.50556666666667,
              32.6989
            ],
            [
              -115.5189,
              32.6989
            ],
            [
              -115.5189,
              32.685566666666666
            ]
          ]
        ]
      }
    },
    {
      "type": "Feature",
      "properties": {
        "subdivision_id": "CALEXICO_G8",
        "city_id": "CALEXICO",
        "city_name": "Calexico",
        "name": "Grid 3-2",
        "grid_row": 2,
        "grid_col": 1,
        "grid_size": 3
      },
      "geometry": {
        "type": "Polygon",
        "coordinates": [
          [
            [
              -115.50556666666667,
              32.685566666666666
            ],
            [
              -115.49223333333333,
              32.685566666666666
            ],
            [
              -115.49223333333333,
              32.6989
            ],
            [
              -115.50556666666667,
              32.6989
            ],
            [
              -115.50556666666667,
              32.685566666666666
            ]
          ]
        ]
      }
    },
    {
      "type": "Feature",
      "properties": {
        "subdivision_id": "CALEXICO_G9",
        "city_id": "CALEXICO",
        "city_name": "Calexico",
        "name": "Grid 3-3",
        "grid_row": 2,
        "grid_col": 2,
        "grid_size": 3
      },
      "geometry": {
        "type": "Polygon",
        "coordinates": [
          [
            [
              -115.49223333333335,
              32.685566666666666
            ],
            [
              -115.47890000000001,
              32.685566666666666
            ],
            [
              -115.47890000000001,
              32.6989
            ],
            [
              -115.49223333333335,
              32.6989
            ],
            [
              -115.49223333333335,
              32.685566666666666
            ]
          ]
        ]
      }
    },
    {
      "type": "Feature",
      "properties": {
        "subdivision_id": "BRAWLEY_G1",
        "city_id": "BRAWLEY",
        "city_name": "Brawley",
        "name": "Grid 1-1",
        "grid_row": 0,
        "grid_col": 0,
        "grid_size": 3
      },
      "geometry": {
        "type": "Polygon",
        "coordinates": [
          [
            [
              -115.5503,
              32.9587
            ],
            [
              -115.53696666666666,
              32.9587
            ],
            [
              -115.53696666666666,
              32.972033333333336
            ],
            [
              -115.5503,
              32.972033333333336
            ],
            [
              -115.5503,
              32.9587
            ]
          ]
        ]
      }
    },
    {
      "type": "Feature",
      "properties": {
        "subdivision_id": "BRAWLEY_G2",
        "city_id": "BRAWLEY",
        "city_name": "Brawley",
        "name": "Grid 1-2",
        "grid_row": 0,
        "grid_col": 1,
        "grid_size": 3
      },
      "geometry": {
        "type": "Polygon",
        "coordinates": [
          [
            [
              -115.53696666666666,
              32.9587
            ],
            [
              -115.52363333333332,
              32.9587
            ],
            [
              -115.52363333333332,
              32.972033333333336
            ],
            [
              -115.53696666666666,
              32.972033333333336
            ],
            [
              -115.53696666666666,
              32.9587
            ]
          ]
        ]
      }
    },
    {
      "type": "Feature",
      "properties": {
        "subdivision_id": "BRAWLEY_G3",
        "city_id": "BRAWLEY",
        "city_name": "Brawley",
        "name": "Grid 1-3",
        "grid_row": 0,
        "grid_col": 2,
        "grid_size": 3
      },
      "geometry": {
        "type": "Polygon",
        "coordinates": [
          [
            [
              -115.52363333333334,
              32.9587
            ],
            [
              -115.5103,
              32.9587
            ],
            [
              -115.5103,
              32.972033333333336
            ],
            [
              -115.52363333333334,
              32.972033333333336
            ],
            [
              -115.52363333333334,
              32.9587
            ]
          ]
        ]
      }
    },
    {
      "type": "Feature",
      "properties": {
        "subdivision_id": "BRAWLEY_G4",
        "city_id": "BRAWLEY",
        "city_name": "Brawley",
        "name": "Grid 2-1",
        "grid_row": 1,
        "grid_col": 0,
        "grid_size": 3
      },
      "geometry": {
        "type": "Polygon",
        "coordinates": [
          [
            [
              -115.5503,
              32.972033333333336
            ],
            [
              -115.53696666666666,
              32.972033333333336
            ],
            [
              -115.53696666666666,
              32.98536666666667
            ],
            [
              -115.5503,
              32.98536666666667
            ],
            [
              -115.5503,
              32.972033333333336
            ]
          ]
        ]
      }
    },
    {
      "type": "Feature",
      "properties": {
        "subdivision_id": "BRAWLEY_G5",
        "city_id": "BRAWLEY",
        "city_name": "Brawley",
        "name": "Grid 2-2",
        "grid_row": 1,
        "grid_col": 1,
        "grid_size": 3
      },
      "geometry": {
        "type": "Polygon",
        "coordinates": [
          [
            [
              -115.53696666666666,
              32.972033333333336
            ],
            [
              -115.52363333333332,
              32.972033333333336
            ],
            [
              -115.52363333333332,
              32.98536666666667
            ],
            [
              -115.53696666666666,
              32.98536666666667
            ],
            [
              -115.53696666666666,
              32.972033333333336
            ]
          ]
        ]
      }
    },
    {
      "type": "Feature",
      "properties": {
        "subdivision_id": "BRAWLEY_G6",
        "city_id": "BRAWLEY",
        "city_name": "Brawley",
        "name": "Grid 2-3",
        "grid_row": 1,
        "grid_col": 2,
        "grid_size": 3
      },
      "geometry": {
        "type": "Polygon",
        "coordinates": [
          [
            [
              -115.52363333333334,
              32.972033333333336
            ],
            [
              -115.5103,
              32.972033333333336
            ],
            [
              -115.5103,
              32.98536666666667
            ],
            [
              -115.52363333333334,
              32.98536666666667
            ],
            [
              -115.52363333333334,
              32.972033333333336
            ]
          ]
        ]
      }
    },
    {
      "type": "Feature",
      "properties": {
        "subdivision_id": "BRAWLEY_G7",
        "city_id": "BRAWLEY",
        "city_name": "Brawley",
        "name": "Grid 3-1",
        "grid_row": 2,
        "grid_col": 0,
        "grid_size": 3
      },
      "geometry": {
        "type": "Polygon",
        "coordinates": [
          [
            [
              -115.5503,
              32.98536666666667
            ],
            [
              -115.53696666666666,
              32.98536666666667
            ],
            [
              -115.53696666666666,
              32.99870000000001
            ],
            [
              -115.5503,
              32.99870000000001
            ],
            [
              -115.5503,
              32.98536666666667
            ]
          ]
        ]
      }
    },
    {
      "type": "Feature",
      "properties": {
        "subdivision_id": "BRAWLEY_G8",
        "city_id": "BRAWLEY",
        "city_name": "Brawley",
        "name": "Grid 3-2",
        "grid_row": 2,
        "grid_col": 1,
        "grid_size": 3
      },
      "geometry": {
        "type": "Polygon",
        "coordinates": [
          [
            [
              -115.53696666666666,
              32.98536666666667
            ],
            [
              -115.52363333333332,
              32.98536666666667
            ],
            [
              -115.52363333333332,
              32.99870000000001
            ],
            [
              -115.53696666666666,
              32.99870000000001
            ],
            [
              -115.53696666666666,
              32.98536666666667
            ]
          ]
        ]
      }
    },
    {
      "type": "Feature",
      "properties": {
        "subdivision_id": "BRAWLEY_G9",
        "city_id": "BRAWLEY",
        "city_name": "Brawley",
        "name": "Grid 3-3",
        "grid_row": 2,
        "grid_col": 2,
        "grid_size": 3
      },
      "geometry": {
        "type": "Polygon",
        "coordinates": [
          [
            [
              -115.52363333333334,
              32.98536666666667
            ],
            [
              -115.5103,
              32.98536666666667
            ],
            [
              -115.5103,
              32.99870000000001
            ],
            [
              -115.52363333333334,
              32.99870000000001
            ],
            [
              -115.52363333333334,
              32.98536666666667
            ]
          ]
        ]
      }
    },
    {
      "type": "Feature",
      "properties": {
        "subdivision_id": "IMPERIAL_G1",
        "city_id": "IMPERIAL",
        "city_name": "Imperial",
        "name": "Grid 1-1",
        "grid_row": 0,
        "grid_col": 0,
        "grid_size": 3
      },
      "geometry": {
        "type": "Polygon",
        "coordinates": [
          [
            [
              -115.5844,
              32.8323
            ],
            [
              -115.5744,
              32.8323
            ],
            [
              -115.5744,
              32.842299999999994
            ],
            [
              -115.5844,
              32.842299999999994
            ],
            [
              -115.5844,
              32.8323
            ]
          ]
        ]
      }
    },
    {
      "type": "Feature",
      "properties": {
        "subdivision_id": "IMPERIAL_G2",
        "city_id": "IMPERIAL",
        "city_name": "Imperial",
        "name": "Grid 1-2",
        "grid_row": 0,
        "grid_col": 1,
        "grid_size": 3
      },
      "geometry": {
        "type": "Polygon",
        "coordinates": [
          [
            [
              -115.5744,
              32.8323
            ],
            [
              -115.56439999999999,
              32.8323
            ],
            [
              -115.56439999999999,
              32.842299999999994
            ],
            [
              -115.5744,
              32.842299999999994
            ],
            [
              -115.5744,
              32.8323
            ]
          ]
        ]
      }
    },
    {
      "type": "Feature",
      "properties": {
        "subdivision_id": "IMPERIAL_G3",
        "city_id": "IMPERIAL",
        "city_name": "Imperial",
        "name": "Grid 1-3",
        "grid_row": 0,
        "grid_col": 2,
        "grid_size": 3
      },
      "geometry": {
        "type": "Polygon",
        "coordinates": [
          [
            [
              -115.5644,
              32.8323
            ],
            [
              -115.5544,
              32.8323
            ],
            [
              -115.5544,
              32.842299999999994
            ],
            [
              -115.5644,
              32.842299999999994
            ],
            [
              -115.5644,
              32.8323
            ]
          ]
        ]
      }
    },
    {
      "type": "Feature",
      "properties": {
        "subdivision_id": "IMPERIAL_G4",
        "city_id": "IMPERIAL",
        "city_name": "Imperial",
        "name": "Grid 2-1",
        "grid_row": 1,
        "grid_col": 0,
        "grid_size": 3
      },
      "geometry": {
        "type": "Polygon",
        "coordinates": [
          [
            [
              -115.5844,
              32.842299999999994
            ],
            [
              -115.5744,
              32.842299999999994
            ],
            [
              -115.5744,
              32.85229999999999
            ],
            [
              -115.5844,
              32.85229999999999
            ],
            [
              -115.5844,
              32.842299999999994
            ]
          ]
        ]
      }
    },
    {
      "type": "Feature",
      "properties": {
        "subdivision_id": "IMPERIAL_G5",
        "city_id": "IMPERIAL",
        "city_name": "Imperial",
        "name": "Grid 2-2",
        "grid_row": 1,
        "grid_col": 1,
        "grid_size": 3
      },
      "geometry": {
        "type": "Polygon",
        "coordinates": [
          [
            [
              -115.5744,
              32.842299999999994
            ],
            [
              -115.56439999999999,
              32.842299999999994
            ],
            [
              -115.56439999999999,
              32.85229999999999
            ],
            [
              -115.5744,
              32.85229999999999
            ],
            [
              -115.5744,
              32.842299999999994
            ]
          ]
        ]
      }
    },
    {
      "type": "Feature",
      "properties": {
        "subdivision_id": "IMPERIAL_G6",
        "city_id": "IMPERIAL",
        "city_name": "Imperial",
        "name": "Grid 2-3",
        "grid_row": 1,
        "grid_col": 2,
        "grid_size": 3
      },
      "geometry": {
        "type": "Polygon",
        "coordinates": [
          [
            [
              -115.5644,
              32.842299999999994
            ],
            [
              -115.5544,
              32.842299999999994
            ],
            [
              -115.5544,
              32.85229999999999
            ],
            [
              -115.5644,
              32.85229999999999
            ],
            [
              -115.5644,
              32.842299999999994
            ]
          ]
        ]
      }
    },
    {
      "type": "Feature",
      "properties": {
        "subdivision_id": "IMPERIAL_G7",
        "city_id": "IMPERIAL",
        "city_name": "Imperial",
        "name": "Grid 3-1",
        "grid_row": 2,
        "grid_col": 0,
        "grid_size": 3
      },
      "geometry": {
        "type": "Polygon",
        "coordinates": [
          [
            [
              -115.5844,
              32.8523
            ],
            [
              -115.5744,
              32.8523
            ],
            [
              -115.5744,
              32.8623
            ],
            [
              -115.5844,
              32.8623
            ],
            [
              -115.5844,
              32.8523
            ]
          ]
        ]
      }
    },
    {
      "type": "Feature",
      "properties": {
        "subdivision_id": "IMPERIAL_G8",
        "city_id": "IMPERIAL",
        "city_name": "Imperial",
        "name": "Grid 3-2",
        "grid_row": 2,
        "grid_col": 1,
        "grid_size": 3
      },
      "geometry": {
        "type": "Polygon",
        "coordinates": [
          [
            [
              -115.5744,
              32.8523
            ],
            [
              -115.56439999999999,
              32.8523
            ],
            [
              -115.56439999999999,
              32.8623
            ],
            [
              -115.5744,
              32.8623
            ],
            [
              -115.5744,
              32.8523
            ]
          ]
        ]
      }
    },
    {
      "type": "Feature",
      "properties": {
        "subdivision_id": "IMPERIAL_G9",
        "city_id": "IMPERIAL",
        "city_name": "Imperial",
        "name": "Grid 3-3",
        "grid_row": 2,
        "grid_col": 2,
        "grid_size": 3
      },
      "geometry": {
        "type": "Polygon",
        "coordinates": [
          [
            [
              -115.5644,
              32.8523
            ],
            [
              -115.5544,
              32.8523
            ],
            [
              -115.5544,
              32.8623
            ],
            [
              -115.5644,
              32.8623
            ],
            [
              -115.5644,
              32.8523
            ]
          ]
        ]
      }
    },
    {
      "type": "Feature",
      "properties": {
        "subdivision_id": "HOLTVILLE_G1",
        "city_id": "HOLTVILLE",
        "city_name": "Holtville",
        "name": "Grid 1-1",
        "grid_row": 0,
        "grid_col": 0,
        "grid_size": 3
      },
      "geometry": {
        "type": "Polygon",
        "coordinates": [
          [
            [
              -115.3953,
              32.7962
            ],
            [
              -115.3853,
              32.7962
            ],
            [
              -115.3853,
              32.8062
            ],
            [
              -115.3953,
              32.8062
            ],
            [
              -115.3953,
              32.7962
            ]
          ]
        ]
      }
    },
    {
      "type": "Feature",
      "properties": {
        "subdivision_id": "HOLTVILLE_G2",
        "city_id": "HOLTVILLE",
        "city_name": "Holtville",
        "name": "Grid 1-2",
        "grid_row": 0,
        "grid_col": 1,
        "grid_size": 3
      },
      "geometry": {
        "type": "Polygon",
        "coordinates": [
          [
            [
              -115.3853,
              32.7962
            ],
            [
              -115.3753,
              32.7962
            ],
            [
              -115.3753,
              32.8062
            ],
            [
              -115.3853,
              32.8062
            ],
            [
              -115.3853,
              32.7962
            ]
          ]
        ]
      }
    },
    {
      "type": "Feature",
      "properties": {
        "subdivision_id": "HOLTVILLE_G3",
        "city_id": "HOLTVILLE",
        "city_name": "Holtville",
        "name": "Grid 1-3",
        "grid_row": 0,
        "grid_col": 2,
        "grid_size": 3
      },
      "geometry": {
        "type": "Polygon",
        "coordinates": [
          [
            [
              -115.37530000000001,
              32.7962
            ],
            [
              -115.3653,
              32.7962
            ],
            [
              -115.3653,
              32.8062
            ],
            [
              -115.37530000000001,
              32.8062
            ],
            [
              -115.37530000000001,
              32.7962
            ]
          ]
        ]
      }
    },
    {
      "type": "Feature",
      "properties": {
        "subdivision_id": "HOLTVILLE_G4",
        "city_id": "HOLTVILLE",
        "city_name": "Holtville",
        "name": "Grid 2-1",
        "grid_row": 1,
        "grid_col": 0,
        "grid_size": 3
      },
      "geometry": {
        "type": "Polygon",
        "coordinates": [
          [
            [
              -115.3953,
              32.8062
            ],
            [
              -115.3853,
              32.8062
            ],
            [
              -115.3853,
              32.816199999999995
            ],
            [
              -115.3953,
              32.816199999999995
            ],
            [
              -115.3953,
              32.8062
            ]
          ]
        ]
      }
    },
    {
      "type": "Feature",
      "properties": {
        "subdivision_id": "HOLTVILLE_G5",
        "city_id": "HOLTVILLE",
        "city_name": "Holtville",
        "name": "Grid 2-2",
        "grid_row": 1,
        "grid_col": 1,
        "grid_size": 3
      },
      "geometry": {
        "type": "Polygon",
        "coordinates": [
          [
            [
              -115.3853,
              32.8062
            ],
            [
              -115.3753,
              32.8062
            ],
            [
              -115.3753,
              32.816199999999995
            ],
            [
              -115.3853,
              32.816199999999995
            ],
            [
              -115.3853,
              32.8062
            ]
          ]
        ]
      }
    },
    {
      "type": "Feature",
      "properties": {
        "subdivision_id": "HOLTVILLE_G6",
        "city_id": "HOLTVILLE",
        "city_name": "Holtville",
        "name": "Grid 2-3",
        "grid_row": 1,
        "grid_col": 2,
        "grid_size": 3
      },
      "geometry": {
        "type": "Polygon",
        "coordinates": [
          [
            [
              -115.37530000000001,
              32.8062
            ],
            [
              -115.3653,
              32.8062
            ],
            [
              -115.3653,
              32.816199999999995
            ],
            [
              -115.37530000000001,
              32.816199999999995
            ],
            [
              -115.37530000000001,
              32.8062
            ]
          ]
        ]
      }
    },
    {
      "type": "Feature",
      "properties": {
        "subdivision_id": "HOLTVILLE_G7",
        "city_id": "HOLTVILLE",
        "city_name": "Holtville",
        "name": "Grid 3-1",
        "grid_row": 2,
        "grid_col": 0,
        "grid_size": 3
      },
      "geometry": {
        "type": "Polygon",
        "coordinates": [
          [
            [
              -115.3953,
              32.8162
            ],
            [
              -115.3853,
              32.8162
            ],
            [
              -115.3853,
              32.8262
            ],
            [
              -115.3953,
              32.8262
            ],
            [
              -115.3953,
              32.8162
            ]
          ]
        ]
      }
    },
    {
      "type": "Feature",
      "properties": {
        "subdivision_id": "HOLTVILLE_G8",
        "city_id": "HOLTVILLE",
        "city_name": "Holtville",
        "name": "Grid 3-2",
        "grid_row": 2,
        "grid_col": 1,
        "grid_size": 3
      },
      "geometry": {
        "type": "Polygon",
        "coordinates": [
          [
            [
              -115.3853,
              32.8162
            ],
            [
              -115.3753,
              32.8162
            ],
            [
              -115.3753,
              32.8262
            ],
            [
              -115.3853,
              32.8262
            ],
            [
              -115.3853,
              32.8162
            ]
          ]
        ]
      }
    },
    {
      "type": "Feature",
      "properties": {
        "subdivision_id": "HOLTVILLE_G9",
        "city_id": "HOLTVILLE",
        "city_name": "Holtville",
        "name": "Grid 3-3",
        "grid_row": 2,
        "grid_col": 2,
        "grid_size": 3
      },
      "geometry": {
        "type": "Polygon",
        "coordinates": [
          [
            [
              -115.37530000000001,
              32.8162
            ],
            [
              -115.3653,
              32.8162
            ],
            [
              -115.3653,
              32.8262
            ],
            [
              -115.37530000000001,
              32.8262
            ],
            [
              -115.37530000000001,
              32.8162
            ]
          ]
        ]
      }
    }
  ],
  "properties": {
    "description": "City subdivisions for TrashAlert pilot cities",
    "generated_by": "generate_subdivisions.py",
    "city_count": 6,
    "subdivision_count": 54
  }
}