{
  "type": "Feature",
  "properties": {
    "name": "Bakersfield",
    "state": "California",
    "note": "Mock boundary for testing - replace with actual OSM data when available"
  },
  "geometry": {
    "type": "Polygon",
    "coordinates": [
      [
        [
          -119.15,
          35.25
        ],
        [
          -118.88,
          35.25
        ],
        [
          -118.88,
          35.5
        ],
        [
          -119.15,
          35.5
        ],
        [
          -119.15,
          35.25
        ]
      ]
    ]
  },
  "bbox": [
    -119.15,
    35.25,
    -118.88,
    35.5
  ]
}