{
  "type": "Feature",
  "properties": {
    "name": "Brawley",
    "display_name": "Brawley, California, USA",
    "type": "city",
    "generated": "fallback_circular_approximation",
    "center_lat": 32.9786,
    "center_lon": -115.5303,
    "approx_radius_km": 3,
    "state": "California",
    "note": "Mock boundary for testing - replace with actual OSM data when available"
  },
  "geometry": {
    "type": "Polygon",
    "coordinates": [
      [
        [
          -115.4980817774709,
          32.9786
        ],
        [
          -115.4987008415827,
          32.983872711405844
        ],
        [
          -115.50053424363148,
          32.98894279546933
        ],
        [
          -115.50351152700466,
          32.99361541170323
        ],
        [
          -115.5075182763719,
          32.99771099408612
        ],
        [
          -115.51240051460204,
          33.00107215168385
        ],
        [
          -115.51797062001786,
          33.0035697170949
        ],
        [
          -115.524014536592,
          33.005107710281166
        ],
        [
          -115.5303,
          33.005627027027025
        ],
        [
          -115.53658546340799,
          33.005107710281166
        ],
        [
          -115.54262937998213,
          33.0035697170949
        ],
        [
          -115.54819948539796,
          33.00107215168385
        ],
        [
          -115.5530817236281,
          32.99771099408612
        ],
        [
          -115.55708847299533,
          32.99361541170323
        ],
        [
          -115.56006575636852,
          32.98894279546933
        ],
        [
          -115.56189915841729,
          32.983872711405844
        ],
        [
          -115.56251822252909,
          32.9786
        ],
        [
          -115.56189915841729,
          32.973327288594156
        ],
        [
          -115.56006575636852,
          32.96825720453067
        ],
        [
          -115.55708847299533,
          32.96358458829677
        ],
        [
          -115.5530817236281,
          32.95948900591388
        ],
        [
          -115.54819948539796,
          32.95612784831615
        ],
        [
          -115.54262937998213,
          32.9536302829051
        ],
        [
          -115.53658546340799,
          32.952092289718834
        ],
        [
          -115.5303,
          32.951572972972976
        ],
        [
          -115.524014536592,
          32.952092289718834
        ],
        [
          -115.51797062001786,
          32.9536302829051
        ],
        [
          -115.51240051460204,
          32.95612784831615
        ],
        [
          -115.5075182763719,
          32.95948900591388
        ],
        [
          -115.50351152700466,
          32.96358458829677
        ],
        [
          -115.50053424363148,
          32.96825720453067
        ],
        [
          -115.4987008415827,
          32.973327288594156
        ],
        [
          -115.4980817774709,
          32.9786
        ]
      ]
    ]
  }
          -115.58,
          32.95
        ],
        [
          -115.48,
          32.95
        ],
        [
          -115.48,
          33.01
        ],
        [
          -115.58,
          33.01
        ],
        [
          -115.58,
          32.95
        ]
      ]
    ]
  },
  "bbox": [
    -115.58,
    32.95,
    -115.48,
    33.01
  ]
}