{
  "type": "Feature",
  "properties": {
    "name": "Imperial",
    "state": "California",
    "note": "Mock boundary for testing - replace with actual OSM data when available"
  },
  "geometry": {
    "type": "Polygon",
    "coordinates": [
      [
        [
          -115.6,
          32.82
        ],
        [
          -115.54,
          32.82
        ],
        [
          -115.54,
          32.87
        ],
        [
          -115.6,
          32.87
        ],
        [
          -115.6,
          32.82
        ]
      ]
    ]
  },
  "bbox": [
    -115.6,
    32.82,
    -115.54,
    32.87
  ]
}