{
  "type": "FeatureCollection",
  "features": [
    {
      "type": "Feature",
      "properties": {
        "id": "portland_pearl",
        "name": "Pearl District",
        "city": "Portland"
      },
      "geometry": {
        "type": "Polygon",
        "coordinates": [[
          [-122.6850, 45.5250],
          [-122.6700, 45.5250],
          [-122.6700, 45.5350],
          [-122.6850, 45.5350],
          [-122.6850, 45.5250]
        ]]
      }
    },
    {
      "type": "Feature",
      "properties": {
        "id": "portland_hawthorne",
        "name": "Hawthorne",
        "city": "Portland"
      },
      "geometry": {
        "type": "Polygon",
        "coordinates": [[
          [-122.6500, 45.5100],
          [-122.6300, 45.5100],
          [-122.6300, 45.5200],
          [-122.6500, 45.5200],
          [-122.6500, 45.5100]
        ]]
      }
    }
  ]
}
